0 COSMOS 1066
1 11165U 78121A   13281.87498161  .00000070  00000-0  31746-4 0  3404
2 11165 081.2354 102.1589 0048980 284.4512 183.2358 14.11408664307768
0 COSMOS 1066
1 11165U 78121A   13283.08650738  .00000084  00000-0  39246-4 0  3418
2 11165 081.2353 100.9756 0048927 280.9146 219.1868 14.11408527307936
0 COSMOS 1066
1 11165U 78121A   13285.99662584  .00000125  00000-0  61601-4 0  3430
2 11165 081.2355 098.1334 0048803 272.4239 245.9455 14.11408441308340
0 COSMOS 1066
1 11165U 78121A   13287.46502735  .00000149  00000-0  74980-4 0  3446
2 11165 081.2358 096.6993 0048749 268.1413 147.1174 14.11408749308557
0 COSMOS 1066
1 11165U 78121A   13288.60171119  .00000188  00000-0  96283-4 0  3455
2 11165 081.2361 095.5892 0048715 264.8340 162.7755 14.11409225308718
0 COSMOS 1066
1 11165U 78121A   13289.74909006  .00000191  00000-0  97683-4 0  3465
2 11165 081.2364 094.4687 0048730 261.5098 232.7632 14.11409566308879
0 COSMOS 1066
1 11165U 78121A   13291.02562016  .00000193  00000-0  98843-4 0  3477
2 11165 081.2366 093.2221 0048708 257.7961 239.0027 14.11410174309059
0 COSMOS 1066
1 11165U 78121A   13292.08967060  .00000190  00000-0  97132-4 0  3480
2 11165 081.2368 092.1830 0048715 254.7134 245.5900 14.11410532309209
0 COSMOS 1066
1 11165U 78121A   13294.48274670  .00000140  00000-0  69940-4 0  3508
2 11165 081.2371 089.8464 0048769 247.8101 165.1142 14.11411623309549
0 COSMOS 1066
1 11165U 78121A   13295.84046962  .00000120  00000-0  58804-4 0  3516
2 11165 081.2372 088.5209 0048878 244.0071 223.7676 14.11412108309732
